{
  "type": "FeatureCollection",
  "features": [
    {
      "type": "Feature",
      "id": "ath-seg-01",
      "geometry": {
        "type": "LineString",
        "coordinates": [
          [
            23.735658,
            37.977175
          ],
          [
            23.735667,
            37.977166
          ],
          [
            23.735697,
            37.977132
          ],
          [
            23.735817,
            37.976992
          ],
          [
            23.735865,
            37.976931
          ],
          [
            23.735873,
            37.97692
          ],
          [
            23.735879,
            37.976908
          ],
          [
            23.735888,
            37.976884
          ],
          [
            23.735875,
            37.976713
          ],
          [
            23.735847,
            37.97654
          ],
          [
            23.735826,
            37.97635
          ],
          [
            23.735815,
            37.97626
          ],
          [
            23.735808,
            37.976188
          ],
          [
            23.735802,
            37.97614
          ],
          [
            23.735793,
            37.976057
          ],
          [
            23.735789,
            37.976011
          ],
          [
            23.735767,
            37.975829
          ],
          [
            23.73575,
            37.975736
          ],
          [
            23.735712,
            37.975534
          ],
          [
            23.73564,
            37.975182
          ],
          [
            23.735574,
            37.974858
          ],
          [
            23.735561,
            37.974799
          ],
          [
            23.735552,
            37.974748
          ],
          [
            23.735447,
            37.974235
          ],
          [
            23.735402,
            37.973998
          ],
          [
            23.735396,
            37.973972
          ],
          [
            23.735379,
            37.973886
          ],
          [
            23.735366,
            37.973819
          ],
          [
            23.73533,
            37.973684
          ],
          [
            23.735318,
            37.973638
          ],
          [
            23.735296,
            37.973564
          ],
          [
            23.735276,
            37.973498
          ],
          [
            23.735252,
            37.973438
          ],
          [
            23.735233,
            37.973401
          ],
          [
            23.735226,
            37.973388
          ],
          [
            23.735189,
            37.973334
          ],
          [
            23.735117,
            37.973246
          ],
          [
            23.734933,
            37.973036
          ]
        ]
      },
      "properties": {
        "id": "ath-seg-01",
        "name": "Amalias Ave (Syntagma)",
        "area": "Syntagma, Athens",
        "characteristics": {
          "speedLimitKmh": 50,
          "junction": true,
          "lighting": "good",
          "pedestrianActivity": "high"
        },
        "source": "Mock data (development only)",
        "sourceCoordinates": [
          [
            23.7357,
            37.9772
          ],
          [
            23.7355,
            37.9752
          ],
          [
            23.735,
            37.973
          ]
        ]
      }
    },
    {
      "type": "Feature",
      "id": "ath-seg-02",
      "geometry": {
        "type": "LineString",
        "coordinates": [
          [
            23.726831,
            37.984326
          ],
          [
            23.726831,
            37.984326
          ],
          [
            23.726871,
            37.984319
          ],
          [
            23.726911,
            37.984312
          ],
          [
            23.727062,
            37.984287
          ],
          [
            23.727229,
            37.984259
          ],
          [
            23.727414,
            37.984229
          ],
          [
            23.72744,
            37.984226
          ],
          [
            23.72751,
            37.984221
          ],
          [
            23.727528,
            37.98422
          ],
          [
            23.727581,
            37.984232
          ],
          [
            23.72764,
            37.984257
          ],
          [
            23.727696,
            37.98429
          ],
          [
            23.727756,
            37.984326
          ],
          [
            23.727823,
            37.984358
          ],
          [
            23.727929,
            37.984393
          ],
          [
            23.728086,
            37.984412
          ],
          [
            23.728224,
            37.984409
          ],
          [
            23.728224,
            37.984409
          ],
          [
            23.728267,
            37.984398
          ],
          [
            23.728319,
            37.98438
          ],
          [
            23.728358,
            37.984362
          ],
          [
            23.728371,
            37.984353
          ],
          [
            23.728372,
            37.984353
          ],
          [
            23.728453,
            37.984292
          ],
          [
            23.728514,
            37.984213
          ],
          [
            23.72856,
            37.984114
          ],
          [
            23.728595,
            37.984063
          ],
          [
            23.728648,
            37.984028
          ],
          [
            23.728734,
            37.984012
          ],
          [
            23.728794,
            37.984006
          ],
          [
            23.728916,
            37.983988
          ],
          [
            23.729218,
            37.983943
          ],
          [
            23.729383,
            37.983919
          ],
          [
            23.729383,
            37.983919
          ]
        ]
      },
      "properties": {
        "id": "ath-seg-02",
        "name": "Omonia Square",
        "area": "Omonia, Athens",
        "characteristics": {
          "speedLimitKmh": 50,
          "junction": true,
          "pedestrianActivity": "high"
        },
        "source": "Mock data (development only)",
        "sourceCoordinates": [
          [
            23.7268,
            37.9848
          ],
          [
            23.728,
            37.9841
          ],
          [
            23.7292,
            37.9834
          ]
        ]
      }
    },
    {
      "type": "Feature",
      "id": "ath-seg-03",
      "geometry": {
        "type": "LineString",
        "coordinates": [
          [
            23.730491,
            37.981353
          ],
          [
            23.730713,
            37.98109
          ],
          [
            23.730799,
            37.980986
          ],
          [
            23.730812,
            37.980972
          ],
          [
            23.73086,
            37.980915
          ],
          [
            23.73148,
            37.980177
          ],
          [
            23.731491,
            37.980164
          ],
          [
            23.731586,
            37.980055
          ],
          [
            23.731716,
            37.979896
          ],
          [
            23.731899,
            37.979679
          ],
          [
            23.73198,
            37.979582
          ],
          [
            23.732034,
            37.979518
          ],
          [
            23.732162,
            37.979365
          ],
          [
            23.732199,
            37.979322
          ],
          [
            23.732239,
            37.979274
          ],
          [
            23.732658,
            37.978777
          ],
          [
            23.732719,
            37.978701
          ],
          [
            23.733131,
            37.978191
          ],
          [
            23.733161,
            37.978155
          ],
          [
            23.733224,
            37.97808
          ],
          [
            23.733431,
            37.977843
          ],
          [
            23.733646,
            37.977598
          ],
          [
            23.733667,
            37.977573
          ],
          [
            23.733727,
            37.9775
          ],
          [
            23.733752,
            37.97747
          ]
        ]
      },
      "properties": {
        "id": "ath-seg-03",
        "name": "Panepistimiou St",
        "area": "Athens Centre",
        "characteristics": {
          "speedLimitKmh": 50,
          "lighting": "good",
          "pedestrianActivity": "high"
        },
        "source": "Mock data (development only)",
        "sourceCoordinates": [
          [
            23.7302,
            37.9812
          ],
          [
            23.732,
            37.9795
          ],
          [
            23.734,
            37.9776
          ]
        ]
      }
    },
    {
      "type": "Feature",
      "id": "ath-seg-04",
      "geometry": {
        "type": "LineString",
        "coordinates": [
          [
            23.732719,
            37.978701
          ],
          [
            23.733131,
            37.978191
          ],
          [
            23.733161,
            37.978155
          ],
          [
            23.733224,
            37.978079
          ],
          [
            23.733431,
            37.977843
          ],
          [
            23.733646,
            37.977598
          ],
          [
            23.733667,
            37.977573
          ],
          [
            23.733727,
            37.9775
          ],
          [
            23.734084,
            37.977078
          ],
          [
            23.734354,
            37.976759
          ]
        ]
      },
      "properties": {
        "id": "ath-seg-04",
        "name": "Stadiou St",
        "area": "Athens Centre",
        "characteristics": {
          "speedLimitKmh": 50,
          "pedestrianActivity": "high"
        },
        "source": "Mock data (development only)",
        "sourceCoordinates": [
          [
            23.732719,
            37.978701
          ],
          [
            23.733532,
            37.977728
          ],
          [
            23.734354,
            37.976759
          ]
        ],
        "shapeSource": "openstreetmap",
        "osmStreetName": "Σταδίου"
      }
    },
    {
      "type": "Feature",
      "id": "ath-seg-05",
      "geometry": {
        "type": "LineString",
        "coordinates": [
          [
            23.743084,
            37.975349
          ],
          [
            23.743099,
            37.975351
          ],
          [
            23.743152,
            37.97536
          ],
          [
            23.743187,
            37.975367
          ],
          [
            23.743334,
            37.975401
          ],
          [
            23.743423,
            37.975423
          ],
          [
            23.744263,
            37.975623
          ],
          [
            23.744352,
            37.975641
          ],
          [
            23.745232,
            37.975845
          ],
          [
            23.745587,
            37.97592
          ],
          [
            23.745782,
            37.976008
          ],
          [
            23.745876,
            37.976031
          ],
          [
            23.74593,
            37.976044
          ],
          [
            23.746176,
            37.976103
          ],
          [
            23.746953,
            37.97629
          ],
          [
            23.747042,
            37.976311
          ],
          [
            23.747154,
            37.976336
          ],
          [
            23.747232,
            37.976355
          ],
          [
            23.747775,
            37.976487
          ],
          [
            23.748292,
            37.976611
          ],
          [
            23.748674,
            37.976699
          ],
          [
            23.74874,
            37.976715
          ],
          [
            23.748783,
            37.976724
          ],
          [
            23.748814,
            37.976731
          ],
          [
            23.749381,
            37.976862
          ],
          [
            23.749606,
            37.976914
          ]
        ]
      },
      "properties": {
        "id": "ath-seg-05",
        "name": "Vasilissis Sofias Ave (Evangelismos)",
        "area": "Kolonaki, Athens",
        "characteristics": {
          "speedLimitKmh": 50,
          "junction": true,
          "lighting": "good"
        },
        "source": "Mock data (development only)",
        "sourceCoordinates": [
          [
            23.743,
            37.9757
          ],
          [
            23.7461,
            37.9763
          ],
          [
            23.7495,
            37.9772
          ]
        ]
      }
    },
    {
      "type": "Feature",
      "id": "ath-seg-06",
      "geometry": {
        "type": "LineString",
        "coordinates": [
          [
            23.734099,
            37.991353
          ],
          [
            23.733102,
            37.991507
          ],
          [
            23.732979,
            37.991527
          ],
          [
            23.732531,
            37.991603
          ],
          [
            23.732481,
            37.991612
          ],
          [
            23.732382,
            37.991628
          ],
          [
            23.732292,
            37.991644
          ],
          [
            23.731848,
            37.991719
          ],
          [
            23.731558,
            37.991769
          ],
          [
            23.731526,
            37.991774
          ],
          [
            23.73151,
            37.991777
          ],
          [
            23.731407,
            37.991794
          ],
          [
            23.731257,
            37.991819
          ]
        ]
      },
      "properties": {
        "id": "ath-seg-06",
        "name": "Alexandras Ave",
        "area": "Pedion tou Areos, Athens",
        "characteristics": {
          "speedLimitKmh": 60,
          "junction": true
        },
        "source": "Mock data (development only)",
        "sourceCoordinates": [
          [
            23.734099,
            37.991353
          ],
          [
            23.732676,
            37.991579
          ],
          [
            23.731257,
            37.991819
          ]
        ],
        "shapeSource": "openstreetmap",
        "osmStreetName": "Αλεξάνδρας"
      }
    },
    {
      "type": "Feature",
      "id": "ath-seg-07",
      "geometry": {
        "type": "LineString",
        "coordinates": [
          [
            23.728614,
            37.96607
          ],
          [
            23.72853,
            37.966007
          ],
          [
            23.727461,
            37.96519
          ],
          [
            23.727165,
            37.964955
          ],
          [
            23.726977,
            37.964816
          ],
          [
            23.726885,
            37.964742
          ],
          [
            23.726859,
            37.964723
          ],
          [
            23.726804,
            37.964679
          ],
          [
            23.72657,
            37.964494
          ],
          [
            23.726266,
            37.964258
          ],
          [
            23.725489,
            37.963657
          ],
          [
            23.725193,
            37.963425
          ],
          [
            23.724909,
            37.963214
          ],
          [
            23.724653,
            37.963026
          ],
          [
            23.724614,
            37.962995
          ],
          [
            23.724514,
            37.962918
          ]
        ]
      },
      "properties": {
        "id": "ath-seg-07",
        "name": "Syngrou Ave (Fix)",
        "area": "Koukaki, Athens",
        "characteristics": {
          "speedLimitKmh": 70,
          "junction": true,
          "lighting": "good"
        },
        "source": "Mock data (development only)",
        "sourceCoordinates": [
          [
            23.728614,
            37.96607
          ],
          [
            23.726567,
            37.964492
          ],
          [
            23.724514,
            37.962918
          ]
        ],
        "shapeSource": "openstreetmap",
        "osmStreetName": "Ανδρέα Συγγρού"
      }
    },
    {
      "type": "Feature",
      "id": "ath-seg-08",
      "geometry": {
        "type": "LineString",
        "coordinates": [
          [
            23.718233,
            37.979726
          ],
          [
            23.718233,
            37.979726
          ],
          [
            23.717848,
            37.979556
          ],
          [
            23.717793,
            37.979532
          ],
          [
            23.717761,
            37.979517
          ],
          [
            23.717743,
            37.979508
          ],
          [
            23.717686,
            37.979434
          ],
          [
            23.716943,
            37.979127
          ],
          [
            23.716821,
            37.979072
          ],
          [
            23.716745,
            37.97902
          ],
          [
            23.716695,
            37.978981
          ],
          [
            23.71666,
            37.978954
          ],
          [
            23.716089,
            37.978526
          ],
          [
            23.715923,
            37.978402
          ],
          [
            23.715429,
            37.978029
          ],
          [
            23.715376,
            37.977995
          ],
          [
            23.715252,
            37.977923
          ],
          [
            23.715156,
            37.977874
          ],
          [
            23.71508,
            37.977838
          ],
          [
            23.714969,
            37.977787
          ],
          [
            23.714876,
            37.977743
          ],
          [
            23.714111,
            37.977387
          ],
          [
            23.713925,
            37.977301
          ]
        ]
      },
      "properties": {
        "id": "ath-seg-08",
        "name": "Pireos St (Keramikos)",
        "area": "Keramikos, Athens",
        "characteristics": {
          "speedLimitKmh": 50,
          "lighting": "poor"
        },
        "source": "Mock data (development only)",
        "sourceCoordinates": [
          [
            23.718,
            37.98
          ],
          [
            23.716,
            37.9786
          ],
          [
            23.714,
            37.9772
          ]
        ]
      }
    },
    {
      "type": "Feature",
      "id": "ath-seg-09",
      "geometry": {
        "type": "LineString",
        "coordinates": [
          [
            23.726976,
            37.979902
          ],
          [
            23.726963,
            37.97985
          ],
          [
            23.726896,
            37.979592
          ],
          [
            23.726888,
            37.979563
          ],
          [
            23.726795,
            37.979204
          ],
          [
            23.726769,
            37.979106
          ],
          [
            23.726754,
            37.979049
          ],
          [
            23.726705,
            37.978858
          ],
          [
            23.726646,
            37.978632
          ],
          [
            23.726574,
            37.978356
          ],
          [
            23.726547,
            37.978254
          ],
          [
            23.726535,
            37.978206
          ],
          [
            23.726525,
            37.97817
          ],
          [
            23.726461,
            37.977923
          ],
          [
            23.726376,
            37.977598
          ],
          [
            23.726351,
            37.9775
          ],
          [
            23.726315,
            37.977363
          ],
          [
            23.726301,
            37.97731
          ],
          [
            23.726296,
            37.977291
          ],
          [
            23.726211,
            37.976966
          ],
          [
            23.726203,
            37.976934
          ],
          [
            23.72618,
            37.976844
          ],
          [
            23.726176,
            37.976829
          ],
          [
            23.726145,
            37.976709
          ]
        ]
      },
      "properties": {
        "id": "ath-seg-09",
        "name": "Athinas St (Monastiraki)",
        "area": "Monastiraki, Athens",
        "characteristics": {
          "speedLimitKmh": 30,
          "pedestrianActivity": "high"
        },
        "source": "Mock data (development only)",
        "sourceCoordinates": [
          [
            23.726976,
            37.979902
          ],
          [
            23.726561,
            37.978306
          ],
          [
            23.726145,
            37.976709
          ]
        ],
        "shapeSource": "openstreetmap",
        "osmStreetName": "Αθηνάς"
      }
    },
    {
      "type": "Feature",
      "id": "ath-seg-10",
      "geometry": {
        "type": "LineString",
        "coordinates": [
          [
            23.75998,
            37.984711
          ],
          [
            23.760604,
            37.984917
          ],
          [
            23.760659,
            37.984935
          ],
          [
            23.760846,
            37.984997
          ],
          [
            23.761231,
            37.985197
          ],
          [
            23.761289,
            37.985219
          ],
          [
            23.761767,
            37.985405
          ],
          [
            23.761807,
            37.98542
          ],
          [
            23.762369,
            37.985638
          ],
          [
            23.762888,
            37.98584
          ]
        ]
      },
      "properties": {
        "id": "ath-seg-10",
        "name": "Mesogeion Ave (Ampelokipoi)",
        "area": "Ampelokipoi, Athens",
        "characteristics": {
          "speedLimitKmh": 60
        },
        "source": "Mock data (development only)",
        "sourceCoordinates": [
          [
            23.75998,
            37.984711
          ],
          [
            23.761432,
            37.985275
          ],
          [
            23.762888,
            37.98584
          ]
        ],
        "shapeSource": "openstreetmap",
        "osmStreetName": "Μεσογείων"
      }
    },
    {
      "type": "Feature",
      "id": "ath-seg-11",
      "geometry": {
        "type": "LineString",
        "coordinates": [
          [
            23.726908,
            37.991417
          ],
          [
            23.726926,
            37.991647
          ],
          [
            23.726943,
            37.991857
          ],
          [
            23.726949,
            37.991924
          ],
          [
            23.726952,
            37.991957
          ],
          [
            23.726954,
            37.991983
          ],
          [
            23.726957,
            37.992019
          ],
          [
            23.726978,
            37.992292
          ],
          [
            23.727004,
            37.992621
          ],
          [
            23.727013,
            37.992741
          ],
          [
            23.72702,
            37.992838
          ],
          [
            23.727028,
            37.992947
          ],
          [
            23.727044,
            37.993156
          ],
          [
            23.727073,
            37.99348
          ],
          [
            23.727077,
            37.993534
          ],
          [
            23.727082,
            37.993581
          ],
          [
            23.727107,
            37.993862
          ],
          [
            23.727121,
            37.99403
          ],
          [
            23.727128,
            37.994112
          ],
          [
            23.727138,
            37.994245
          ],
          [
            23.727143,
            37.994306
          ],
          [
            23.727166,
            37.994591
          ],
          [
            23.727171,
            37.994661
          ],
          [
            23.727185,
            37.994835
          ],
          [
            23.727195,
            37.994962
          ]
        ]
      },
      "properties": {
        "id": "ath-seg-11",
        "name": "Acharnon St (Victoria)",
        "area": "Victoria, Athens",
        "characteristics": {
          "speedLimitKmh": 50,
          "lighting": "poor",
          "pedestrianActivity": "medium"
        },
        "source": "Mock data (development only)",
        "sourceCoordinates": [
          [
            23.726908,
            37.991417
          ],
          [
            23.727047,
            37.99319
          ],
          [
            23.727195,
            37.994962
          ]
        ],
        "shapeSource": "openstreetmap",
        "osmStreetName": "Αχαρνών"
      }
    },
    {
      "type": "Feature",
      "id": "ath-seg-12",
      "geometry": {
        "type": "LineString",
        "coordinates": [
          [
            23.734382,
            37.958719
          ],
          [
            23.734457,
            37.958522
          ],
          [
            23.734538,
            37.95831
          ],
          [
            23.73461,
            37.958121
          ],
          [
            23.734697,
            37.957894
          ],
          [
            23.734707,
            37.957869
          ],
          [
            23.734732,
            37.957801
          ],
          [
            23.734887,
            37.957496
          ],
          [
            23.734935,
            37.957409
          ],
          [
            23.735211,
            37.95704
          ],
          [
            23.735265,
            37.956969
          ],
          [
            23.735436,
            37.956724
          ],
          [
            23.73565,
            37.956253
          ],
          [
            23.735752,
            37.95603
          ],
          [
            23.73579,
            37.955944
          ],
          [
            23.735878,
            37.955743
          ],
          [
            23.735896,
            37.955702
          ],
          [
            23.735975,
            37.955543
          ],
          [
            23.736054,
            37.955378
          ],
          [
            23.736082,
            37.95532
          ],
          [
            23.736124,
            37.95523
          ],
          [
            23.736312,
            37.954798
          ],
          [
            23.736383,
            37.954641
          ],
          [
            23.736408,
            37.954587
          ],
          [
            23.736445,
            37.954505
          ],
          [
            23.736585,
            37.954202
          ],
          [
            23.736639,
            37.954072
          ],
          [
            23.736737,
            37.953832
          ],
          [
            23.736774,
            37.953732
          ]
        ]
      },
      "properties": {
        "id": "ath-seg-12",
        "name": "Vouliagmenis Ave",
        "area": "Neos Kosmos, Athens",
        "characteristics": {
          "speedLimitKmh": 70
        },
        "source": "Mock data (development only)",
        "sourceCoordinates": [
          [
            23.734382,
            37.958719
          ],
          [
            23.73565,
            37.956253
          ],
          [
            23.736774,
            37.953732
          ]
        ],
        "shapeSource": "openstreetmap",
        "osmStreetName": "Βουλιαγμένης"
      }
    },
    {
      "type": "Feature",
      "id": "ath-seg-13",
      "geometry": {
        "type": "LineString",
        "coordinates": [
          [
            23.740017,
            37.972311
          ],
          [
            23.739821,
            37.971129
          ],
          [
            23.739807,
            37.971048
          ],
          [
            23.739779,
            37.970879
          ],
          [
            23.739672,
            37.970263
          ],
          [
            23.739643,
            37.97021
          ],
          [
            23.739623,
            37.970165
          ],
          [
            23.7396,
            37.970108
          ],
          [
            23.739574,
            37.970013
          ],
          [
            23.739569,
            37.969983
          ],
          [
            23.739563,
            37.969957
          ]
        ]
      },
      "properties": {
        "id": "ath-seg-13",
        "name": "Irodou Attikou St",
        "area": "Athens Centre",
        "characteristics": {
          "speedLimitKmh": 50,
          "lighting": "good",
          "pedestrianActivity": "medium"
        },
        "source": "Mock data (development only)",
        "sourceCoordinates": [
          [
            23.740017,
            37.972311
          ],
          [
            23.739821,
            37.971129
          ],
          [
            23.739563,
            37.969957
          ]
        ],
        "shapeSource": "openstreetmap",
        "osmStreetName": "Ηρώδου Αττικού"
      }
    },
    {
      "type": "Feature",
      "id": "ath-seg-14",
      "geometry": {
        "type": "LineString",
        "coordinates": [
          [
            23.732927,
            37.970782
          ],
          [
            23.732946,
            37.97074
          ],
          [
            23.732974,
            37.970702
          ],
          [
            23.733012,
            37.970661
          ],
          [
            23.733063,
            37.970619
          ],
          [
            23.733139,
            37.970581
          ],
          [
            23.733201,
            37.970555
          ],
          [
            23.733396,
            37.970483
          ],
          [
            23.734201,
            37.970171
          ],
          [
            23.734307,
            37.970129
          ],
          [
            23.734413,
            37.970086
          ],
          [
            23.735095,
            37.969811
          ],
          [
            23.735629,
            37.969596
          ],
          [
            23.736023,
            37.969443
          ],
          [
            23.736148,
            37.969397
          ],
          [
            23.736252,
            37.969361
          ],
          [
            23.736418,
            37.969307
          ],
          [
            23.736836,
            37.969173
          ],
          [
            23.737094,
            37.969097
          ],
          [
            23.737176,
            37.969079
          ],
          [
            23.737263,
            37.969062
          ],
          [
            23.737495,
            37.969029
          ]
        ]
      },
      "properties": {
        "id": "ath-seg-14",
        "name": "Vasilissis Olgas Ave",
        "area": "National Garden, Athens",
        "characteristics": {
          "speedLimitKmh": 30,
          "pedestrianActivity": "high"
        },
        "source": "Mock data (development only)",
        "sourceCoordinates": [
          [
            23.732927,
            37.970782
          ],
          [
            23.735131,
            37.969797
          ],
          [
            23.737495,
            37.969029
          ]
        ],
        "shapeSource": "openstreetmap",
        "osmStreetName": "Βασιλίσσης Όλγας"
      }
    },
    {
      "type": "Feature",
      "id": "ioa-seg-01",
      "geometry": {
        "type": "LineString",
        "coordinates": [
          [
            20.851294,
            39.667792
          ],
          [
            20.851418,
            39.667693
          ],
          [
            20.851456,
            39.667657
          ],
          [
            20.851479,
            39.667633
          ],
          [
            20.851495,
            39.667613
          ],
          [
            20.851539,
            39.667553
          ],
          [
            20.85184,
            39.66708
          ],
          [
            20.85187,
            39.667032
          ],
          [
            20.851905,
            39.666978
          ],
          [
            20.852137,
            39.666659
          ],
          [
            20.852185,
            39.666592
          ],
          [
            20.85272,
            39.66583
          ],
          [
            20.85279,
            39.665734
          ]
        ]
      },
      "properties": {
        "id": "ioa-seg-01",
        "name": "Pyrrou Square",
        "area": "Ioannina Centre",
        "characteristics": {
          "speedLimitKmh": 40,
          "junction": true,
          "pedestrianActivity": "high"
        },
        "source": "Mock data (development only)",
        "sourceCoordinates": [
          [
            20.8505,
            39.6672
          ],
          [
            20.852,
            39.6666
          ],
          [
            20.8534,
            39.666
          ]
        ]
      }
    },
    {
      "type": "Feature",
      "id": "ioa-seg-02",
      "geometry": {
        "type": "LineString",
        "coordinates": [
          [
            20.850661,
            39.658295
          ],
          [
            20.85042,
            39.657283
          ],
          [
            20.850343,
            39.656951
          ],
          [
            20.850293,
            39.656708
          ],
          [
            20.850258,
            39.656562
          ],
          [
            20.850237,
            39.656472
          ],
          [
            20.850225,
            39.656427
          ],
          [
            20.85021,
            39.65639
          ],
          [
            20.85018,
            39.656339
          ],
          [
            20.850138,
            39.656271
          ],
          [
            20.850092,
            39.656202
          ],
          [
            20.850062,
            39.65616
          ],
          [
            20.849979,
            39.656045
          ],
          [
            20.849746,
            39.655706
          ],
          [
            20.849619,
            39.655504
          ],
          [
            20.849397,
            39.655182
          ],
          [
            20.849277,
            39.655009
          ],
          [
            20.849202,
            39.654899
          ],
          [
            20.849123,
            39.654786
          ],
          [
            20.849071,
            39.654714
          ],
          [
            20.848975,
            39.654587
          ],
          [
            20.848878,
            39.654466
          ],
          [
            20.848833,
            39.654412
          ],
          [
            20.848627,
            39.654163
          ],
          [
            20.84858,
            39.654106
          ],
          [
            20.848539,
            39.654052
          ],
          [
            20.848444,
            39.653932
          ],
          [
            20.848319,
            39.653754
          ],
          [
            20.84822,
            39.653622
          ],
          [
            20.848178,
            39.653565
          ],
          [
            20.848152,
            39.653532
          ],
          [
            20.848123,
            39.653504
          ],
          [
            20.848095,
            39.653478
          ],
          [
            20.84806,
            39.653452
          ],
          [
            20.848035,
            39.653433
          ],
          [
            20.847977,
            39.6534
          ]
        ]
      },
      "properties": {
        "id": "ioa-seg-02",
        "name": "Dodonis Ave (Kiafa)",
        "area": "Kiafa, Ioannina",
        "characteristics": {
          "speedLimitKmh": 60,
          "junction": true
        },
        "source": "Mock data (development only)",
        "sourceCoordinates": [
          [
            20.850661,
            39.658295
          ],
          [
            20.849753,
            39.655716
          ],
          [
            20.847977,
            39.6534
          ]
        ],
        "shapeSource": "openstreetmap",
        "osmStreetName": "Δωδώνης"
      }
    },
    {
      "type": "Feature",
      "id": "ioa-seg-03",
      "geometry": {
        "type": "LineString",
        "coordinates": [
          [
            20.851734,
            39.667246
          ],
          [
            20.85184,
            39.66708
          ],
          [
            20.85187,
            39.667032
          ],
          [
            20.851905,
            39.666978
          ],
          [
            20.852184,
            39.666592
          ],
          [
            20.85272,
            39.66583
          ],
          [
            20.852964,
            39.665498
          ],
          [
            20.853021,
            39.66542
          ],
          [
            20.853206,
            39.665173
          ],
          [
            20.853243,
            39.665124
          ],
          [
            20.853286,
            39.665067
          ]
        ]
      },
      "properties": {
        "id": "ioa-seg-03",
        "name": "28is Oktovriou St",
        "area": "Ioannina Centre",
        "characteristics": {
          "speedLimitKmh": 40,
          "pedestrianActivity": "high"
        },
        "source": "Mock data (development only)",
        "sourceCoordinates": [
          [
            20.851734,
            39.667246
          ],
          [
            20.852495,
            39.66615
          ],
          [
            20.853286,
            39.665067
          ]
        ],
        "shapeSource": "openstreetmap",
        "osmStreetName": "28ης Οκτωβρίου"
      }
    },
    {
      "type": "Feature",
      "id": "ioa-seg-04",
      "geometry": {
        "type": "LineString",
        "coordinates": [
          [
            20.854034,
            39.66996
          ],
          [
            20.854013,
            39.669926
          ],
          [
            20.853999,
            39.669903
          ],
          [
            20.853841,
            39.66962
          ],
          [
            20.853813,
            39.66958
          ],
          [
            20.854055,
            39.669286
          ],
          [
            20.854112,
            39.669217
          ],
          [
            20.854495,
            39.668753
          ],
          [
            20.854504,
            39.668742
          ],
          [
            20.854734,
            39.668463
          ],
          [
            20.855013,
            39.668132
          ],
          [
            20.855205,
            39.667931
          ],
          [
            20.855221,
            39.667919
          ],
          [
            20.855374,
            39.667807
          ],
          [
            20.855575,
            39.66768
          ]
        ]
      },
      "properties": {
        "id": "ioa-seg-04",
        "name": "Napoleontos Zerva St",
        "area": "Ioannina Centre",
        "characteristics": {
          "speedLimitKmh": 40
        },
        "source": "Mock data (development only)",
        "sourceCoordinates": [
          [
            20.854,
            39.6702
          ],
          [
            20.855,
            39.669
          ],
          [
            20.856,
            39.6678
          ]
        ]
      }
    },
    {
      "type": "Feature",
      "id": "ioa-seg-05",
      "geometry": {
        "type": "LineString",
        "coordinates": [
          [
            20.858629,
            39.670435
          ],
          [
            20.858674,
            39.670459
          ],
          [
            20.858831,
            39.67054
          ],
          [
            20.858877,
            39.67056
          ],
          [
            20.859015,
            39.670615
          ],
          [
            20.859126,
            39.67067
          ],
          [
            20.859229,
            39.670722
          ],
          [
            20.859238,
            39.670728
          ],
          [
            20.859318,
            39.670773
          ],
          [
            20.859369,
            39.670818
          ],
          [
            20.859383,
            39.670827
          ],
          [
            20.859425,
            39.670852
          ],
          [
            20.85954,
            39.670955
          ],
          [
            20.859644,
            39.671027
          ],
          [
            20.859825,
            39.671128
          ],
          [
            20.859853,
            39.671146
          ],
          [
            20.859894,
            39.67117
          ],
          [
            20.859912,
            39.671187
          ],
          [
            20.859921,
            39.671198
          ],
          [
            20.860104,
            39.67146
          ],
          [
            20.860117,
            39.671472
          ],
          [
            20.860138,
            39.671478
          ],
          [
            20.860173,
            39.671478
          ],
          [
            20.860426,
            39.671479
          ],
          [
            20.860459,
            39.671483
          ],
          [
            20.860509,
            39.671496
          ],
          [
            20.860689,
            39.671565
          ],
          [
            20.860786,
            39.671602
          ],
          [
            20.861482,
            39.671865
          ],
          [
            20.861586,
            39.671905
          ],
          [
            20.861623,
            39.671917
          ],
          [
            20.861681,
            39.671932
          ],
          [
            20.861719,
            39.671939
          ],
          [
            20.861754,
            39.671943
          ],
          [
            20.861781,
            39.671945
          ],
          [
            20.861817,
            39.671946
          ],
          [
            20.861847,
            39.671944
          ],
          [
            20.861877,
            39.67194
          ],
          [
            20.861908,
            39.671931
          ],
          [
            20.861947,
            39.671915
          ],
          [
            20.861992,
            39.671891
          ],
          [
            20.862028,
            39.671869
          ],
          [
            20.862058,
            39.671847
          ],
          [
            20.862089,
            39.671821
          ],
          [
            20.862115,
            39.671794
          ],
          [
            20.862179,
            39.671728
          ]
        ]
      },
      "properties": {
        "id": "ioa-seg-05",
        "name": "Andronikou Palaiologou St",
        "area": "Castle area, Ioannina",
        "characteristics": {
          "speedLimitKmh": 50,
          "lighting": "good",
          "pedestrianActivity": "high"
        },
        "source": "Mock data (development only)",
        "sourceCoordinates": [
          [
            20.858629,
            39.670435
          ],
          [
            20.860249,
            39.671478
          ],
          [
            20.862179,
            39.671728
          ]
        ],
        "shapeSource": "openstreetmap",
        "osmStreetName": "Ανδρονίκου Παλαιολόγου"
      }
    },
    {
      "type": "Feature",
      "id": "ioa-seg-06",
      "geometry": {
        "type": "LineString",
        "coordinates": [
          [
            20.855621,
            39.672766
          ],
          [
            20.855621,
            39.672766
          ],
          [
            20.856677,
            39.672517
          ],
          [
            20.856726,
            39.672505
          ],
          [
            20.856794,
            39.672489
          ],
          [
            20.856834,
            39.672467
          ],
          [
            20.856857,
            39.67245
          ],
          [
            20.856892,
            39.672426
          ],
          [
            20.856892,
            39.672426
          ],
          [
            20.856935,
            39.672387
          ],
          [
            20.856991,
            39.672328
          ],
          [
            20.857074,
            39.672241
          ],
          [
            20.857121,
            39.672188
          ],
          [
            20.857162,
            39.672143
          ],
          [
            20.857191,
            39.672107
          ],
          [
            20.857233,
            39.672055
          ],
          [
            20.85726,
            39.672013
          ],
          [
            20.85728,
            39.67198
          ],
          [
            20.857301,
            39.671931
          ],
          [
            20.857315,
            39.671897
          ],
          [
            20.85734,
            39.671824
          ]
        ]
      },
      "properties": {
        "id": "ioa-seg-06",
        "name": "Mavili Square",
        "area": "Castle area, Ioannina",
        "characteristics": {
          "speedLimitKmh": 30,
          "junction": true,
          "pedestrianActivity": "high"
        },
        "source": "Mock data (development only)",
        "sourceCoordinates": [
          [
            20.8558,
            39.673
          ],
          [
            20.857,
            39.6725
          ],
          [
            20.8582,
            39.672
          ]
        ]
      }
    },
    {
      "type": "Feature",
      "id": "ioa-seg-07",
      "geometry": {
        "type": "LineString",
        "coordinates": [
          [
            20.838232,
            39.624245
          ],
          [
            20.838187,
            39.624101
          ],
          [
            20.838148,
            39.623932
          ],
          [
            20.838111,
            39.623734
          ],
          [
            20.838066,
            39.623479
          ],
          [
            20.838029,
            39.623248
          ],
          [
            20.838006,
            39.623091
          ],
          [
            20.837985,
            39.622916
          ],
          [
            20.837967,
            39.622747
          ],
          [
            20.837948,
            39.622575
          ],
          [
            20.837935,
            39.622446
          ],
          [
            20.837926,
            39.622306
          ],
          [
            20.837923,
            39.622127
          ],
          [
            20.837916,
            39.621925
          ],
          [
            20.837913,
            39.621695
          ],
          [
            20.837909,
            39.621596
          ],
          [
            20.837902,
            39.621519
          ],
          [
            20.837891,
            39.621458
          ],
          [
            20.837872,
            39.621373
          ],
          [
            20.837849,
            39.621289
          ],
          [
            20.837821,
            39.621212
          ],
          [
            20.837786,
            39.621128
          ],
          [
            20.837727,
            39.620972
          ],
          [
            20.837711,
            39.620921
          ],
          [
            20.837702,
            39.620887
          ],
          [
            20.837697,
            39.620822
          ],
          [
            20.837697,
            39.620774
          ],
          [
            20.83771,
            39.620714
          ],
          [
            20.837733,
            39.620618
          ],
          [
            20.837769,
            39.620506
          ],
          [
            20.837805,
            39.620402
          ],
          [
            20.837866,
            39.620212
          ],
          [
            20.837935,
            39.619999
          ],
          [
            20.838014,
            39.619749
          ],
          [
            20.838095,
            39.61951
          ],
          [
            20.838111,
            39.619464
          ],
          [
            20.838118,
            39.619447
          ],
          [
            20.838231,
            39.619163
          ],
          [
            20.838255,
            39.619105
          ]
        ]
      },
      "properties": {
        "id": "ioa-seg-07",
        "name": "Panepistimiou St (University)",
        "area": "University, Ioannina",
        "characteristics": {
          "speedLimitKmh": 70,
          "lighting": "poor"
        },
        "source": "Mock data (development only)",
        "sourceCoordinates": [
          [
            20.838232,
            39.624245
          ],
          [
            20.837911,
            39.621646
          ],
          [
            20.838255,
            39.619105
          ]
        ],
        "shapeSource": "openstreetmap",
        "osmStreetName": "Πανεπιστημίου"
      }
    },
    {
      "type": "Feature",
      "id": "ioa-seg-08",
      "geometry": {
        "type": "LineString",
        "coordinates": [
          [
            20.863682,
            39.657973
          ],
          [
            20.863651,
            39.658017
          ],
          [
            20.863386,
            39.658392
          ],
          [
            20.86321,
            39.658651
          ],
          [
            20.863094,
            39.658833
          ],
          [
            20.862994,
            39.658996
          ],
          [
            20.862928,
            39.659098
          ],
          [
            20.862771,
            39.659345
          ],
          [
            20.862704,
            39.659444
          ],
          [
            20.862676,
            39.659481
          ],
          [
            20.862626,
            39.659551
          ],
          [
            20.862464,
            39.659766
          ],
          [
            20.862212,
            39.660106
          ],
          [
            20.862199,
            39.660125
          ],
          [
            20.861993,
            39.660421
          ],
          [
            20.86163,
            39.660983
          ],
          [
            20.861347,
            39.66143
          ],
          [
            20.861257,
            39.661562
          ]
        ]
      },
      "properties": {
        "id": "ioa-seg-08",
        "name": "Akti Miaouli St",
        "area": "Ioannina",
        "characteristics": {
          "speedLimitKmh": 50
        },
        "source": "Mock data (development only)",
        "sourceCoordinates": [
          [
            20.863682,
            39.657973
          ],
          [
            20.862464,
            39.659766
          ],
          [
            20.861257,
            39.661562
          ]
        ],
        "shapeSource": "openstreetmap",
        "osmStreetName": "Ακτή Μιαούλη"
      }
    },
    {
      "type": "Feature",
      "id": "ioa-seg-09",
      "geometry": {
        "type": "LineString",
        "coordinates": [
          [
            20.844601,
            39.690629
          ],
          [
            20.844523,
            39.690613
          ],
          [
            20.844335,
            39.690567
          ],
          [
            20.844126,
            39.69051
          ],
          [
            20.843917,
            39.690453
          ],
          [
            20.843858,
            39.690437
          ],
          [
            20.843783,
            39.690416
          ],
          [
            20.841986,
            39.689896
          ],
          [
            20.841809,
            39.689839
          ],
          [
            20.841194,
            39.68965
          ],
          [
            20.840827,
            39.689536
          ],
          [
            20.840606,
            39.689463
          ],
          [
            20.840251,
            39.689312
          ],
          [
            20.839906,
            39.689135
          ],
          [
            20.839546,
            39.68895
          ]
        ]
      },
      "properties": {
        "id": "ioa-seg-09",
        "name": "Panagias-Ioanninon Rd",
        "area": "Perivleptos, Ioannina",
        "characteristics": {
          "speedLimitKmh": 90,
          "junction": true
        },
        "source": "Mock data (development only)",
        "sourceCoordinates": [
          [
            20.844601,
            39.690629
          ],
          [
            20.842005,
            39.689901
          ],
          [
            20.839546,
            39.68895
          ]
        ],
        "shapeSource": "openstreetmap",
        "osmStreetName": "Παναγίας - Ιωαννίνων"
      }
    },
    {
      "type": "Feature",
      "id": "ioa-seg-10",
      "geometry": {
        "type": "LineString",
        "coordinates": [
          [
            20.848148,
            39.663828
          ],
          [
            20.847873,
            39.663688
          ],
          [
            20.847759,
            39.663633
          ],
          [
            20.847722,
            39.663618
          ],
          [
            20.84769,
            39.663608
          ],
          [
            20.847666,
            39.663604
          ],
          [
            20.847644,
            39.663602
          ],
          [
            20.847626,
            39.663603
          ],
          [
            20.847591,
            39.663606
          ],
          [
            20.847562,
            39.66361
          ],
          [
            20.847538,
            39.663613
          ],
          [
            20.847539,
            39.663603
          ],
          [
            20.847539,
            39.663586
          ],
          [
            20.847538,
            39.663567
          ],
          [
            20.847537,
            39.663551
          ],
          [
            20.847534,
            39.663538
          ],
          [
            20.847529,
            39.663521
          ],
          [
            20.847524,
            39.66351
          ],
          [
            20.847518,
            39.6635
          ],
          [
            20.84751,
            39.663489
          ],
          [
            20.847496,
            39.663478
          ],
          [
            20.847478,
            39.663466
          ],
          [
            20.847114,
            39.663237
          ],
          [
            20.847081,
            39.663214
          ],
          [
            20.847051,
            39.663189
          ],
          [
            20.847027,
            39.663164
          ],
          [
            20.847004,
            39.663135
          ],
          [
            20.846985,
            39.663105
          ],
          [
            20.846956,
            39.663052
          ],
          [
            20.846929,
            39.662998
          ],
          [
            20.846856,
            39.662839
          ]
        ]
      },
      "properties": {
        "id": "ioa-seg-10",
        "name": "Kountouriotou St",
        "area": "Ioannina Centre",
        "characteristics": {
          "speedLimitKmh": 40,
          "lighting": "good"
        },
        "source": "Mock data (development only)",
        "sourceCoordinates": [
          [
            20.848,
            39.664
          ],
          [
            20.847,
            39.6628
          ]
        ]
      }
    }
  ]
}
